{
  "norad_id": 68358,
  "name": "CENTISPACE-1 OBJECT J",
  "history": [
    {
      "epoch": "2026-03-25T14:49:37.060320Z",
      "apogee_km": 653.5108111418449,
      "perigee_km": 634.0306347368669,
      "latitude_deg": -3.041121490109053e-05,
      "longitude_deg": -28.84805713463643,
      "height_km": 639.0992263934688,
      "semi_major_axis_km": 7021.907722939355,
      "eccentricity": 0.0013871,
      "inclination_deg": 54.9877,
      "raan_deg": 16.6351,
      "arg_perigee_deg": 306.1411,
      "mean_anomaly_deg": 53.8304,
      "mean_motion_rev_day": 14.75435012
    }
  ]
}